ONEWEB-0171             
1 48070U 21025AE  24309.63224496 -.00000165  00000+0 -48602-3 0  9999
2 48070  87.8907  77.5200 0001568  92.5768 267.5540 13.13471014176220
ONEWEB-0172             
1 48071U 21025AF  24309.61161176 -.00000154  00000+0 -45605-3 0  9991
2 48071  87.8905  77.4901 0001513  91.6556 268.4746 13.13471602177111
ONEWEB-0174             
1 48072U 21025AG  24309.59414687  .00000289  00000+0  75531-3 0  9995
2 48072  87.8906  77.5078 0001435  99.7796 260.3495 13.13468471176433
ONEWEB-0175             
1 48073U 21025AH  24309.62271854 -.00000236  00000+0 -68149-3 0  9998
2 48073  87.8902  77.4824 0001806  88.0297 272.1039 13.13469731176094
ONEWEB-0177             
1 48074U 21025AJ  24309.40688869 -.00000055  00000+0 -18545-3 0  9997
2 48074  87.8900  77.5356 0001210  94.0356 266.0912 13.13471352176258
ONEWEB-0178             
1 48075U 21025AK  24309.42448153  .00000394  00000+0  10427-2 0  9994
2 48075  87.8908  77.5596 0001346  92.6829 267.4454 13.13471483176309
ONEWEB-0108             
1 48076U 21025AL  24309.38467090 -.00000100  00000+0 -30823-3 0  9991
2 48076  87.8899  77.5360 0001657 104.8620 255.2693 13.13471268176220
ONEWEB-0169             
1 48077U 21025AM  24309.64494412  .00000180  00000+0  45853-3 0  9994
2 48077  87.8903  77.4984 0001617 105.2049 254.9259 13.13470171174914
